STARLINK-30806          
1 58180U 23167F   26068.21360033 -.00000178  00000+0  30671-5 0  9999
2 58180  43.0019 145.9682 0001648 259.5964 100.4702 15.26757589130918
KUIPER-00204            
1 67145U 25301N   26068.39760395  .00020516  00000+0  79568-3 0  9999
2 67145  51.8870  71.6415 0003071 354.8934   5.2016 15.26088400 13737
